{"fetched_at":"2026-03-30T06:02:59Z","count":15439,"tles":[{"name":"STARLINK-33758","line1":"1 64004U 25101L   26087.77961162  .00026887  00000+0  98214-3 0  9992","line2":"2 64004  43.0031 250.2576 0002076 271.9691  88.0923 15.27607969 49975","category":"Starlink"}]}